[{"OBJECT_NAME":"STARLINK-3298","OBJECT_ID":"2021-125K","EPOCH":"2026-03-09T19:45:28.942560","MEAN_MOTION":15.08834528,"ECCENTRICITY":0.00013415,"INCLINATION":53.2151,"RA_OF_ASC_NODE":258.5234,"ARG_OF_PERICENTER":86.765,"MEAN_ANOMALY":273.3496,"EPHEMERIS_TYPE":0,"CLASSIFICATION_TYPE":"U","NORAD_CAT_ID":50165,"ELEMENT_SET_NO":999,"REV_AT_EPOCH":23652,"BSTAR":1.4302685e-5,"MEAN_MOTION_DOT":-6.0e-7,"MEAN_MOTION_DDOT":0},{"OBJECT_NAME":"FENGYUN 1C DEB","OBJECT_ID":"1999-025BFB","EPOCH":"2026-03-07T22:39:13.230432","MEAN_MOTION":14.80895829,"ECCENTRICITY":0.01343541,"INCLINATION":99.2432,"RA_OF_ASC_NODE":124.2719,"ARG_OF_PERICENTER":346.3958,"MEAN_ANOMALY":13.3642,"EPHEMERIS_TYPE":0,"CLASSIFICATION_TYPE":"U","NORAD_CAT_ID":31057,"ELEMENT_SET_NO":999,"REV_AT_EPOCH":63213,"BSTAR":0.0011769904,"MEAN_MOTION_DOT":0.0001056,"MEAN_MOTION_DDOT":0}]
